MMS 4                   
1 40485U 15011D   24273.91667824 -.00001712  00000+0  00000+0 0  9990
2 40485  54.1671   4.4812 9001701 152.1280  32.7386  0.28411320  1307
